GLOBALSTAR M045         
1 25676U 99019A   25264.61800721 -.00000126  00000+0 -28579-3 0  9992
2 25676  51.9993  30.4180 0000885  91.8934 281.2582 12.27065472205231
GLOBALSTAR M019         
1 25677U 99019B   25264.46741671 -.00000111  00000+0 -21748-3 0  9999
2 25677  51.9872 167.9908 0001324 122.4488  49.0254 12.13877524196831
GLOBALSTAR M044         
1 25678U 99019C   25264.36103413  .00000034  00000+0  16397-2 0  9990
2 25678  51.9950 131.6791 0005346 222.6958 308.3963 11.90259345182775
GLOBALSTAR M042         
1 25679U 99019D   25264.43599421 -.00000046  00000+0  42998-3 0  9998
2 25679  51.9997 139.2409 0003393 123.6827  47.8181 12.22087773197023
GLOBALSTAR M025         
1 25770U 99031A   25264.50180638 -.00000072  00000+0 -12415-3 0  9999
2 25770  51.9818 296.1548 0001995 307.1183 226.7280 11.22558592492526
GLOBALSTAR M049         
1 25771U 99031B   25264.52225823 -.00000008  00000+0  19866-2 0  9992
2 25771  51.9914 335.7125 0003085 172.4179 187.6665 11.12122701128149
GLOBALSTAR M047         
1 25772U 99031C   25264.40463123 -.00000047  00000+0  62440-3 0  9997
2 25772  51.9856 323.7557 0016554  68.9158 291.3417 11.31929672482001
GLOBALSTAR M052         
1 25773U 99031D   25264.49881049 -.00000015  00000+0  17011-2 0  9996
2 25773  51.9850  83.0787 0002396 354.7013  38.7346 11.15060902489254
